Date/Time,Year,Month,Day,Time,Temp (°C),Temp Flag,Dew Point Temp (°C),Dew Point Temp Flag,Rel Hum (%),Rel Hum Flag,Wind Dir (10s deg),Wind Dir Flag,Wind Spd (km/h),Wind Spd Flag,Visibility (km),Visibility Flag,Stn Press (kPa),Stn Press Flag,Hmdx,Hmdx Flag,Wind Chill,Wind Chill Flag,Weather
2018-07-01 0:00,2018,7,1,0:00,26.6,,20.1,,68,,,M,,M,,,100.11,,34,,,,NA
2018-07-01 1:00,2018,7,1,1:00,25.2,,20.3,,74,,,M,,M,,,100.24,,33,,,,NA
2018-07-01 2:00,2018,7,1,2:00,25.1,,20.8,,77,,,M,,M,,,100.27,,33,,,,NA
2018-07-01 3:00,2018,7,1,3:00,24.2,,20.2,,78,,,M,,M,,,100.22,,32,,,,NA
2018-07-01 4:00,2018,7,1,4:00,24.1,,20,,78,,,M,,M,,,100.21,,32,,,,NA
2018-07-01 5:00,2018,7,1,5:00,23,,19.8,,82,,,M,,M,,,100.24,,30,,,,NA
2018-07-01 6:00,2018,7,1,6:00,23.4,,19.9,,81,,,M,,M,,,100.25,,31,,,,NA
2018-07-01 7:00,2018,7,1,7:00,24.5,,20,,76,,,M,,M,,,100.28,,32,,,,NA
2018-07-01 8:00,2018,7,1,8:00,26,,19.9,,69,,,M,,M,,,100.29,,33,,,,NA
2018-07-01 9:00,2018,7,1,9:00,27.3,,20.4,,66,,,M,,M,,,100.28,,35,,,,NA
2018-07-01 10:00,2018,7,1,10:00,27.6,,19.9,,63,,,M,,M,,,100.29,,35,,,,NA
2018-07-01 11:00,2018,7,1,11:00,29.3,,20.6,,59,,,M,,M,,,100.23,,37,,,,NA
2018-07-01 12:00,2018,7,1,12:00,30.4,,20.8,,57,,,M,,M,,,100.2,,39,,,,NA
2018-07-01 13:00,2018,7,1,13:00,31.7,,21.5,,55,,,M,,M,,,100.16,,41,,,,NA
2018-07-01 14:00,2018,7,1,14:00,32.5,,20.8,,50,,,M,,M,,,100.13,,41,,,,NA
2018-07-01 15:00,2018,7,1,15:00,31.6,,18.5,,46,,,M,,M,,,100.1,,38,,,,NA
2018-07-01 16:00,2018,7,1,16:00,31.4,,17.1,,42,,,M,,M,,,100.05,,37,,,,NA
2018-07-01 17:00,2018,7,1,17:00,31.4,,15.1,,37,,,M,,M,,,100,,35,,,,NA
2018-07-01 18:00,2018,7,1,18:00,30.9,,17,,43,,,M,,M,,,99.98,,36,,,,NA
2018-07-01 19:00,2018,7,1,19:00,29.6,,17.7,,49,,,M,,M,,,99.99,,35,,,,NA
2018-07-01 20:00,2018,7,1,20:00,27.8,,17.8,,54,,,M,,M,,,99.98,,34,,,,NA
2018-07-01 21:00,2018,7,1,21:00,27.8,,18.6,,58,,,M,,M,,,100.02,,34,,,,NA
2018-07-01 22:00,2018,7,1,22:00,27.4,,19,,60,,,M,,M,,,100.06,,34,,,,NA
2018-07-01 23:00,2018,7,1,23:00,26.7,,18.7,,61,,,M,,M,,,100.06,,33,,,,NA
2018-07-02 0:00,2018,7,2,0:00,25.9,,18.1,,62,,,M,,M,,,100.05,,32,,,,NA
2018-07-02 1:00,2018,7,2,1:00,25.6,,18.2,,64,,,M,,M,,,100,,32,,,,NA
2018-07-02 2:00,2018,7,2,2:00,25,,18.7,,68,,,M,,M,,,99.97,,32,,,,NA
2018-07-02 3:00,2018,7,2,3:00,24.6,,18.9,,71,,,M,,M,,,99.96,,31,,,,NA
2018-07-02 4:00,2018,7,2,4:00,24.5,,19.1,,72,,,M,,M,,,99.96,,31,,,,NA
2018-07-02 5:00,2018,7,2,5:00,24.5,,19.5,,74,,,M,,M,,,99.99,,32,,,,NA
2018-07-02 6:00,2018,7,2,6:00,24.5,,20,,76,,,M,,M,,,100.01,,32,,,,NA
2018-07-02 7:00,2018,7,2,7:00,25.6,,20.1,,72,,,M,,M,,,100.05,,33,,,,NA
2018-07-02 8:00,2018,7,2,8:00,27.1,,20.1,,66,,,M,,M,,,100.07,,35,,,,NA
2018-07-02 9:00,2018,7,2,9:00,28.5,,20.1,,61,,,M,,M,,,100.08,,36,,,,NA
2018-07-02 10:00,2018,7,2,10:00,29.6,,21,,60,,,M,,M,,,100.12,,38,,,,NA
2018-07-02 11:00,2018,7,2,11:00,30.5,,20.8,,56,,,M,,M,,,100.13,,39,,,,NA
2018-07-02 12:00,2018,7,2,12:00,31,,21.1,,55,,,M,,M,,,100.11,,40,,,,NA
2018-07-02 13:00,2018,7,2,13:00,30.5,,21.4,,58,,,M,,M,,,100.09,,39,,,,NA
2018-07-02 14:00,2018,7,2,14:00,31.3,,21.5,,56,,,M,,M,,,100.09,,40,,,,NA
2018-07-02 15:00,2018,7,2,15:00,27.9,,18.3,,56,,,M,,M,,,100.09,,34,,,,NA
2018-07-02 16:00,2018,7,2,16:00,28.7,,18.9,,55,,,M,,M,,,100.09,,35,,,,NA
2018-07-02 17:00,2018,7,2,17:00,27.8,,21.8,,70,,,M,,M,,,100.12,,37,,,,NA
2018-07-02 18:00,2018,7,2,18:00,28.9,,21.7,,65,,,M,,M,,,100.15,,38,,,,NA
2018-07-02 19:00,2018,7,2,19:00,29.5,,19.1,,53,,,M,,M,,,100.27,,36,,,,NA
2018-07-02 20:00,2018,7,2,20:00,27.9,,17.9,,55,,,M,,M,,,100.38,,34,,,,NA
2018-07-02 21:00,2018,7,2,21:00,26.2,,16.7,,56,,,M,,M,,,100.51,,31,,,,NA
2018-07-02 22:00,2018,7,2,22:00,24.9,,15.5,,56,,,M,,M,,,100.55,,29,,,,NA
2018-07-02 23:00,2018,7,2,23:00,23.7,,14.6,,57,,,M,,M,,,100.61,,27,,,,NA
2018-07-03 0:00,2018,7,3,0:00,22.8,,14.3,,59,,,M,,M,,,100.63,,26,,,,NA
2018-07-03 1:00,2018,7,3,1:00,21.2,,13.9,,63,,,M,,M,,,100.66,,25,,,,NA
2018-07-03 2:00,2018,7,3,2:00,20.4,,14.8,,70,,,M,,M,,,100.7,,,,,,NA
2018-07-03 3:00,2018,7,3,3:00,19.8,,14.5,,71,,,M,,M,,,100.73,,,,,,NA
2018-07-03 4:00,2018,7,3,4:00,19.4,,14.6,,74,,,M,,M,,,100.78,,,,,,NA
2018-07-03 5:00,2018,7,3,5:00,19.2,,14.5,,74,,,M,,M,,,100.84,,,,,,NA
2018-07-03 6:00,2018,7,3,6:00,20.2,,15.1,,73,,,M,,M,,,100.92,,,,,,NA
2018-07-03 7:00,2018,7,3,7:00,23.3,,13.1,,53,,,M,,M,,,100.97,,26,,,,NA
2018-07-03 8:00,2018,7,3,8:00,25.3,,13.5,,48,,,M,,M,,,101,,28,,,,NA
2018-07-03 9:00,2018,7,3,9:00,25.2,,12.8,,46,,,M,,M,,,101.07,,28,,,,NA
2018-07-03 10:00,2018,7,3,10:00,25.3,,12.7,,46,,,M,,M,,,101.1,,28,,,,NA
2018-07-03 11:00,2018,7,3,11:00,26.6,,14.1,,46,,,M,,M,,,101.12,,30,,,,NA
2018-07-03 12:00,2018,7,3,12:00,26.3,,11.7,,40,,,M,,M,,,101.15,,28,,,,NA
2018-07-03 13:00,2018,7,3,13:00,27.7,,12.9,,40,,,M,,M,,,101.13,,30,,,,NA
2018-07-03 14:00,2018,7,3,14:00,28.3,,11.2,,35,,,M,,M,,,101.12,,30,,,,NA
2018-07-03 15:00,2018,7,3,15:00,29.1,,11.8,,34,,,M,,M,,,101.08,,31,,,,NA
2018-07-03 16:00,2018,7,3,16:00,29.3,,11.9,,34,,,M,,M,,,101.07,,32,,,,NA
2018-07-03 17:00,2018,7,3,17:00,28.6,,10.6,,33,,,M,,M,,,101.02,,30,,,,NA
2018-07-03 18:00,2018,7,3,18:00,29,,9.1,,29,,,M,,M,,,101.01,,30,,,,NA
2018-07-03 19:00,2018,7,3,19:00,28.1,,10.3,,33,,,M,,M,,,100.98,,30,,,,NA
2018-07-03 20:00,2018,7,3,20:00,26.9,,10.3,,35,,,M,,M,,,101.04,,28,,,,NA
2018-07-03 21:00,2018,7,3,21:00,25.8,,12.1,,42,,,M,,M,,,101.08,,28,,,,NA
2018-07-03 22:00,2018,7,3,22:00,25.3,,12.1,,44,,,M,,M,,,101.1,,28,,,,NA
2018-07-03 23:00,2018,7,3,23:00,24.5,,12.3,,46,,,M,,M,,,101.09,,27,,,,NA
2018-07-04 0:00,2018,7,4,0:00,24.4,,12.7,,48,,,M,,M,,,101.09,,27,,,,NA
2018-07-04 1:00,2018,7,4,1:00,23.8,,12.8,,50,,,M,,M,,,101.06,,26,,,,NA
2018-07-04 2:00,2018,7,4,2:00,21.6,,12.9,,58,,,M,,M,,,101.06,,,,,,NA
2018-07-04 3:00,2018,7,4,3:00,22.4,,13.4,,57,,,M,,M,,,101.06,,25,,,,NA
2018-07-04 4:00,2018,7,4,4:00,22.4,,13,,55,,,M,,M,,,101.06,,25,,,,NA
2018-07-04 5:00,2018,7,4,5:00,22,,13.2,,57,,,M,,M,,,101.11,,25,,,,NA
2018-07-04 6:00,2018,7,4,6:00,22.7,,13.6,,56,,,M,,M,,,101.18,,26,,,,NA
2018-07-04 7:00,2018,7,4,7:00,24.1,,13.9,,53,,,M,,M,,,101.18,,27,,,,NA
2018-07-04 8:00,2018,7,4,8:00,25.7,,11.6,,41,,,M,,M,,,101.2,,28,,,,NA
2018-07-04 9:00,2018,7,4,9:00,26.9,,12.2,,40,,,M,,M,,,101.2,,29,,,,NA
2018-07-04 10:00,2018,7,4,10:00,27.5,,12,,38,,,M,,M,,,101.21,,30,,,,NA
2018-07-04 11:00,2018,7,4,11:00,27.8,,10.3,,34,,,M,,M,,,101.22,,29,,,,NA
2018-07-04 12:00,2018,7,4,12:00,29,,11.6,,34,,,M,,M,,,101.19,,31,,,,NA
2018-07-04 13:00,2018,7,4,13:00,30.1,,11.8,,33,,,M,,M,,,101.12,,32,,,,NA
2018-07-04 14:00,2018,7,4,14:00,30.7,,12,,32,,,M,,M,,,101.05,,33,,,,NA
2018-07-04 15:00,2018,7,4,15:00,31.5,,12.6,,32,,,M,,M,,,101.02,,34,,,,NA
2018-07-04 16:00,2018,7,4,16:00,32.2,,14.1,,33,,,M,,M,,,100.98,,36,,,,NA
2018-07-04 17:00,2018,7,4,17:00,29.3,,12.3,,35,,,M,,M,,,100.97,,32,,,,NA
2018-07-04 18:00,2018,7,4,18:00,27.8,,14.4,,44,,,M,,M,,,100.98,,31,,,,NA
2018-07-04 19:00,2018,7,4,19:00,26.8,,15.1,,49,,,M,,M,,,100.99,,31,,,,NA
2018-07-04 20:00,2018,7,4,20:00,26.3,,15.3,,51,,,M,,M,,,100.99,,30,,,,NA
2018-07-04 21:00,2018,7,4,21:00,25.8,,14.8,,51,,,M,,M,,,101.02,,30,,,,NA
2018-07-04 22:00,2018,7,4,22:00,25.1,,15,,54,,,M,,M,,,101.05,,29,,,,NA
2018-07-04 23:00,2018,7,4,23:00,24.9,,15.8,,57,,,M,,M,,,101.01,,29,,,,NA
2018-07-05 0:00,2018,7,5,0:00,24.7,,16,,58,,,M,,M,,,100.92,,29,,,,NA
2018-07-05 1:00,2018,7,5,1:00,24.2,,16.4,,62,,,M,,M,,,100.9,,29,,,,NA
2018-07-05 2:00,2018,7,5,2:00,23.8,,16.5,,64,,,M,,M,,,100.89,,29,,,,NA
2018-07-05 3:00,2018,7,5,3:00,23.4,,16.7,,66,,,M,,M,,,100.88,,28,,,,NA
2018-07-05 4:00,2018,7,5,4:00,23.1,,16.8,,68,,,M,,M,,,100.9,,28,,,,NA
2018-07-05 5:00,2018,7,5,5:00,23.2,,17,,68,,,M,,M,,,100.93,,28,,,,NA
2018-07-05 6:00,2018,7,5,6:00,23.6,,17.7,,70,,,M,,M,,,100.94,,29,,,,NA
2018-07-05 7:00,2018,7,5,7:00,25.7,,16.8,,58,,,M,,M,,,100.98,,31,,,,NA
2018-07-05 8:00,2018,7,5,8:00,27,,17.3,,55,,,M,,M,,,100.95,,32,,,,NA
2018-07-05 9:00,2018,7,5,9:00,28.1,,15.9,,47,,,M,,M,,,100.87,,33,,,,NA
2018-07-05 10:00,2018,7,5,10:00,28.7,,19.5,,58,,,M,,M,,,100.84,,36,,,,NA
2018-07-05 11:00,2018,7,5,11:00,29.7,,19.8,,55,,,M,,M,,,100.8,,37,,,,NA
2018-07-05 12:00,2018,7,5,12:00,31.1,,19.6,,50,,,M,,M,,,100.71,,38,,,,NA
2018-07-05 13:00,2018,7,5,13:00,31.5,,18.7,,47,,,M,,M,,,100.64,,38,,,,NA
2018-07-05 14:00,2018,7,5,14:00,32,,20.1,,49,,,M,,M,,,100.53,,40,,,,NA
2018-07-05 15:00,2018,7,5,15:00,32.1,,19.2,,46,,,M,,M,,,100.43,,39,,,,NA
2018-07-05 16:00,2018,7,5,16:00,30.6,,20.3,,54,,,M,,M,,,100.4,,38,,,,NA
2018-07-05 17:00,2018,7,5,17:00,27.5,,20.6,,66,,,M,,M,,,100.42,,36,,,,NA
2018-07-05 18:00,2018,7,5,18:00,26.6,,20.4,,69,,,M,,M,,,100.39,,35,,,,NA
2018-07-05 19:00,2018,7,5,19:00,26,,20.2,,70,,,M,,M,,,100.49,,34,,,,NA
2018-07-05 20:00,2018,7,5,20:00,23.8,,20.5,,82,,,M,,M,,,100.48,,32,,,,NA
2018-07-05 21:00,2018,7,5,21:00,23.1,,20.8,,87,,,M,,M,,,100.41,,31,,,,NA
2018-07-05 22:00,2018,7,5,22:00,23.5,,21.2,,87,,,M,,M,,,100.41,,32,,,,NA
2018-07-05 23:00,2018,7,5,23:00,23.9,,21.4,,86,,,M,,M,,,100.4,,33,,,,NA
2018-07-06 0:00,2018,7,6,0:00,22,,16.5,,71,,,M,,M,,,100.43,,27,,,,NA
2018-07-06 1:00,2018,7,6,1:00,21.8,,11,,50,,,M,,M,,,100.46,,,,,,NA
2018-07-06 2:00,2018,7,6,2:00,20.2,,10.9,,55,,,M,,M,,,100.51,,,,,,NA
2018-07-06 3:00,2018,7,6,3:00,19.2,,11.3,,60,,,M,,M,,,100.55,,,,,,NA
2018-07-06 4:00,2018,7,6,4:00,18.2,,11.5,,65,,,M,,M,,,100.61,,,,,,NA
2018-07-06 5:00,2018,7,6,5:00,18.5,,11.2,,62,,,M,,M,,,100.66,,,,,,NA
2018-07-06 6:00,2018,7,6,6:00,18.8,,11.5,,63,,,M,,M,,,100.75,,,,,,NA
2018-07-06 7:00,2018,7,6,7:00,20,,10.7,,55,,,M,,M,,,100.84,,,,,,NA
2018-07-06 8:00,2018,7,6,8:00,20.8,,9,,47,,,M,,M,,,100.93,,,,,,NA
2018-07-06 9:00,2018,7,6,9:00,21.8,,8.3,,42,,,M,,M,,,100.97,,,,,,NA
2018-07-06 10:00,2018,7,6,10:00,22.2,,8,,40,,,M,,M,,,101.01,,,,,,NA
2018-07-06 11:00,2018,7,6,11:00,22.7,,7.1,,37,,,M,,M,,,101.09,,,,,,NA
2018-07-06 12:00,2018,7,6,12:00,23.3,,6.9,,35,,,M,,M,,,101.14,,,,,,NA
2018-07-06 13:00,2018,7,6,13:00,23.6,,8.5,,38,,,M,,M,,,101.13,,,,,,NA
2018-07-06 14:00,2018,7,6,14:00,23.3,,8.2,,38,,,M,,M,,,101.12,,,,,,NA
2018-07-06 15:00,2018,7,6,15:00,23.4,,7.1,,35,,,M,,M,,,101.08,,,,,,NA
2018-07-06 16:00,2018,7,6,16:00,23.3,,7.8,,37,,,M,,M,,,101.07,,,,,,NA
2018-07-06 17:00,2018,7,6,17:00,22.6,,7.9,,39,,,M,,M,,,101.08,,,,,,NA
2018-07-06 18:00,2018,7,6,18:00,22.5,,7.2,,37,,,M,,M,,,101.08,,,,,,NA
2018-07-06 19:00,2018,7,6,19:00,21.3,,5,,34,,,M,,M,,,101.13,,,,,,NA
2018-07-06 20:00,2018,7,6,20:00,20.4,,4.2,,34,,,M,,M,,,101.19,,,,,,NA
2018-07-06 21:00,2018,7,6,21:00,19.9,,3.6,,34,,,M,,M,,,101.28,,,,,,NA
2018-07-06 22:00,2018,7,6,22:00,19.2,,4.1,,37,,,M,,M,,,101.32,,,,,,NA
2018-07-06 23:00,2018,7,6,23:00,18.2,,5,,42,,,M,,M,,,101.36,,,,,,NA
2018-07-07 0:00,2018,7,7,0:00,17.8,,6,,46,,,M,,M,,,101.38,,,,,,NA
2018-07-07 1:00,2018,7,7,1:00,17.4,,6.6,,49,,,M,,M,,,101.38,,,,,,NA
2018-07-07 2:00,2018,7,7,2:00,16.5,,6.8,,53,,,M,,M,,,101.38,,,,,,NA
2018-07-07 3:00,2018,7,7,3:00,16,,6.5,,53,,,M,,M,,,101.38,,,,,,NA
2018-07-07 4:00,2018,7,7,4:00,16.2,,6.4,,52,,,M,,M,,,101.37,,,,,,NA
2018-07-07 5:00,2018,7,7,5:00,15.9,,6.9,,55,,,M,,M,,,101.42,,,,,,NA
2018-07-07 6:00,2018,7,7,6:00,16.7,,6.7,,52,,,M,,M,,,101.48,,,,,,NA
2018-07-07 7:00,2018,7,7,7:00,19.4,,7.1,,45,,,M,,M,,,101.51,,,,,,NA
2018-07-07 8:00,2018,7,7,8:00,22.1,,4.7,,32,,,M,,M,,,101.55,,,,,,NA
2018-07-07 9:00,2018,7,7,9:00,23.2,,6.6,,34,,,M,,M,,,101.59,,,,,,NA
2018-07-07 10:00,2018,7,7,10:00,23.1,,8,,38,,,M,,M,,,101.6,,,,,,NA
2018-07-07 11:00,2018,7,7,11:00,23,,9.5,,42,,,M,,M,,,101.61,,,,,,NA
2018-07-07 12:00,2018,7,7,12:00,23.5,,7.7,,36,,,M,,M,,,101.56,,,,,,NA
2018-07-07 13:00,2018,7,7,13:00,24.2,,6.3,,32,,,M,,M,,,101.5,,,,,,NA
2018-07-07 14:00,2018,7,7,14:00,24.9,,5.6,,29,,,M,,M,,,101.45,,,,,,NA
2018-07-07 15:00,2018,7,7,15:00,24.9,,4.8,,27,,,M,,M,,,101.47,,,,,,NA
2018-07-07 16:00,2018,7,7,16:00,25,,3.3,,24,,,M,,M,,,101.38,,,,,,NA
2018-07-07 17:00,2018,7,7,17:00,24.9,,4.3,,26,,,M,,M,,,101.31,,,,,,NA
2018-07-07 18:00,2018,7,7,18:00,24.1,,6.8,,33,,,M,,M,,,101.25,,,,,,NA
2018-07-07 19:00,2018,7,7,19:00,23.6,,6.2,,33,,,M,,M,,,101.27,,,,,,NA
2018-07-07 20:00,2018,7,7,20:00,22.2,,8.5,,41,,,M,,M,,,101.26,,,,,,NA
2018-07-07 21:00,2018,7,7,21:00,20.7,,9.5,,49,,,M,,M,,,101.27,,,,,,NA
2018-07-07 22:00,2018,7,7,22:00,20.5,,10.9,,54,,,M,,M,,,101.27,,,,,,NA
2018-07-07 23:00,2018,7,7,23:00,20.7,,12.5,,60,,,M,,M,,,101.26,,,,,,NA
2018-07-08 0:00,2018,7,8,0:00,19.7,,13.8,,69,,,M,,M,,,101.28,,,,,,NA
2018-07-08 1:00,2018,7,8,1:00,18.9,,13.9,,73,,,M,,M,,,101.23,,,,,,NA
2018-07-08 2:00,2018,7,8,2:00,19.7,,13.7,,68,,,M,,M,,,101.23,,,,,,NA
2018-07-08 3:00,2018,7,8,3:00,18.2,,13.5,,74,,,M,,M,,,101.21,,,,,,NA
2018-07-08 4:00,2018,7,8,4:00,17.3,,12.3,,72,,,M,,M,,,101.29,,,,,,NA
2018-07-08 5:00,2018,7,8,5:00,17,,11.6,,71,,,M,,M,,,101.34,,,,,,NA
2018-07-08 6:00,2018,7,8,6:00,17.7,,12,,69,,,M,,M,,,101.36,,,,,,NA
2018-07-08 7:00,2018,7,8,7:00,20.6,,12.2,,58,,,M,,M,,,101.38,,,,,,NA
2018-07-08 8:00,2018,7,8,8:00,23.6,,11,,45,,,M,,M,,,101.4,,25,,,,NA
2018-07-08 9:00,2018,7,8,9:00,23.9,,12.7,,49,,,M,,M,,,101.39,,27,,,,NA
2018-07-08 10:00,2018,7,8,10:00,24.2,,10.7,,42,,,M,,M,,,101.38,,26,,,,NA
2018-07-08 11:00,2018,7,8,11:00,24.8,,12.6,,47,,,M,,M,,,101.36,,27,,,,NA
2018-07-08 12:00,2018,7,8,12:00,26,,11.5,,41,,,M,,M,,,101.33,,28,,,,NA
2018-07-08 13:00,2018,7,8,13:00,27.4,,10.7,,35,,,M,,M,,,101.28,,29,,,,NA
2018-07-08 14:00,2018,7,8,14:00,27,,10.7,,36,,,M,,M,,,101.2,,29,,,,NA
2018-07-08 15:00,2018,7,8,15:00,27.3,,11.4,,37,,,M,,M,,,101.11,,29,,,,NA
2018-07-08 16:00,2018,7,8,16:00,28.1,,12.8,,39,,,M,,M,,,101.08,,31,,,,NA
2018-07-08 17:00,2018,7,8,17:00,27.5,,10.6,,35,,,M,,M,,,101.07,,29,,,,NA
2018-07-08 18:00,2018,7,8,18:00,26.9,,9.1,,33,,,M,,M,,,101.02,,28,,,,NA
2018-07-08 19:00,2018,7,8,19:00,26.3,,8.5,,32,,,M,,M,,,100.98,,27,,,,NA
2018-07-08 20:00,2018,7,8,20:00,25,,7.8,,33,,,M,,M,,,100.95,,25,,,,NA
2018-07-08 21:00,2018,7,8,21:00,24.7,,11,,42,,,M,,M,,,100.93,,26,,,,NA
2018-07-08 22:00,2018,7,8,22:00,22.6,,13,,55,,,M,,M,,,100.91,,25,,,,NA
2018-07-08 23:00,2018,7,8,23:00,21.9,,10.2,,47,,,M,,M,,,100.92,,,,,,NA
2018-07-09 0:00,2018,7,9,0:00,20.3,,8.3,,46,,,M,,M,,,100.94,,,,,,NA
2018-07-09 1:00,2018,7,9,1:00,19.5,,8.4,,49,,,M,,M,,,100.96,,,,,,NA
2018-07-09 2:00,2018,7,9,2:00,19.1,,8.2,,49,,,M,,M,,,100.94,,,,,,NA
2018-07-09 3:00,2018,7,9,3:00,19,,10.2,,57,,,M,,M,,,100.88,,,,,,NA
2018-07-09 4:00,2018,7,9,4:00,17.9,,10.2,,61,,,M,,M,,,100.87,,,,,,NA
2018-07-09 5:00,2018,7,9,5:00,17.2,,9.4,,60,,,M,,M,,,100.87,,,,,,NA
2018-07-09 6:00,2018,7,9,6:00,18.4,,10.1,,58,,,M,,M,,,100.84,,,,,,NA
2018-07-09 7:00,2018,7,9,7:00,20.7,,10.3,,51,,,M,,M,,,100.81,,,,,,NA
2018-07-09 8:00,2018,7,9,8:00,22.9,,11.7,,49,,,M,,M,,,100.83,,25,,,,NA
2018-07-09 9:00,2018,7,9,9:00,24.7,,13,,48,,,M,,M,,,100.77,,27,,,,NA
2018-07-09 10:00,2018,7,9,10:00,25.8,,13.1,,45,,,M,,M,,,100.73,,29,,,,NA
2018-07-09 11:00,2018,7,9,11:00,27.1,,14,,44,,,M,,M,,,100.69,,30,,,,NA
2018-07-09 12:00,2018,7,9,12:00,29.1,,12.5,,36,,,M,,M,,,100.62,,32,,,,NA
2018-07-09 13:00,2018,7,9,13:00,30.4,,12.5,,33,,,M,,M,,,100.55,,33,,,,NA
2018-07-09 14:00,2018,7,9,14:00,31,,11.2,,30,,,M,,M,,,100.49,,33,,,,NA
2018-07-09 15:00,2018,7,9,15:00,30.8,,12.3,,32,,,M,,M,,,100.43,,33,,,,NA
2018-07-09 16:00,2018,7,9,16:00,31.3,,11.3,,29,,,M,,M,,,100.35,,33,,,,NA
2018-07-09 17:00,2018,7,9,17:00,29.9,,12.9,,35,,,M,,M,,,100.29,,33,,,,NA
2018-07-09 18:00,2018,7,9,18:00,28.3,,14.3,,43,,,M,,M,,,100.26,,32,,,,NA
2018-07-09 19:00,2018,7,9,19:00,26.6,,16,,52,,,M,,M,,,100.27,,31,,,,NA
2018-07-09 20:00,2018,7,9,20:00,28,,15.1,,45,,,M,,M,,,100.31,,32,,,,NA
2018-07-09 21:00,2018,7,9,21:00,27.1,,14.9,,47,,,M,,M,,,100.33,,31,,,,NA
2018-07-09 22:00,2018,7,9,22:00,26.2,,15,,50,,,M,,M,,,100.31,,30,,,,NA
2018-07-09 23:00,2018,7,9,23:00,25,,15.5,,56,,,M,,M,,,100.26,,29,,,,NA
2018-07-10 0:00,2018,7,10,0:00,23.8,,15.9,,61,,,M,,M,,,100.2,,28,,,,NA
2018-07-10 1:00,2018,7,10,1:00,23,,16.1,,65,,,M,,M,,,100.15,,28,,,,NA
2018-07-10 2:00,2018,7,10,2:00,24,,15.6,,60,,,M,,M,,,100.11,,28,,,,NA
2018-07-10 3:00,2018,7,10,3:00,23.2,,15.2,,61,,,M,,M,,,100.09,,27,,,,NA
2018-07-10 4:00,2018,7,10,4:00,23.9,,14.8,,57,,,M,,M,,,100.09,,28,,,,NA
2018-07-10 5:00,2018,7,10,5:00,23.5,,14.8,,58,,,M,,M,,,100.11,,27,,,,NA
2018-07-10 6:00,2018,7,10,6:00,23.8,,14.7,,56,,,M,,M,,,100.13,,28,,,,NA
2018-07-10 7:00,2018,7,10,7:00,23.9,,14.4,,55,,,M,,M,,,100.16,,28,,,,NA
2018-07-10 8:00,2018,7,10,8:00,24.8,,13.1,,48,,,M,,M,,,100.17,,28,,,,NA
2018-07-10 9:00,2018,7,10,9:00,27.1,,12.9,,41,,,M,,M,,,100.16,,30,,,,NA
2018-07-10 10:00,2018,7,10,10:00,27.8,,10.3,,34,,,M,,M,,,100.14,,29,,,,NA
2018-07-10 11:00,2018,7,10,11:00,28.7,,6.9,,25,,,M,,M,,,100.14,,29,,,,NA
2018-07-10 12:00,2018,7,10,12:00,29.7,,4,,19,,,M,,M,,,100.16,,29,,,,NA
2018-07-10 13:00,2018,7,10,13:00,30,,6.7,,23,,,M,,M,,,100.14,,30,,,,NA
2018-07-10 14:00,2018,7,10,14:00,29.8,,8.6,,27,,,M,,M,,,100.13,,30,,,,NA
2018-07-10 15:00,2018,7,10,15:00,29.6,,6.3,,23,,,M,,M,,,100.11,,29,,,,NA
2018-07-10 16:00,2018,7,10,16:00,29,,10.3,,31,,,M,,M,,,100.08,,30,,,,NA
2018-07-10 17:00,2018,7,10,17:00,27.5,,9.3,,32,,,M,,M,,,100.09,,28,,,,NA
2018-07-10 18:00,2018,7,10,18:00,26.1,,8.6,,33,,,M,,M,,,100.12,,27,,,,NA
2018-07-10 19:00,2018,7,10,19:00,25.1,,9.3,,37,,,M,,M,,,100.19,,26,,,,NA
2018-07-10 20:00,2018,7,10,20:00,23.9,,9.5,,40,,,M,,M,,,100.23,,25,,,,NA
2018-07-10 21:00,2018,7,10,21:00,22.9,,9.7,,43,,,M,,M,,,100.28,,,,,,NA
2018-07-10 22:00,2018,7,10,22:00,22.1,,10.2,,47,,,M,,M,,,100.33,,,,,,NA
2018-07-10 23:00,2018,7,10,23:00,21.5,,10.5,,49,,,M,,M,,,100.36,,,,,,NA
2018-07-11 0:00,2018,7,11,0:00,21.2,,10.1,,49,,,M,,M,,,100.35,,,,,,NA
2018-07-11 1:00,2018,7,11,1:00,20.4,,10.2,,52,,,M,,M,,,100.36,,,,,,NA
2018-07-11 2:00,2018,7,11,2:00,19.7,,11.1,,58,,,M,,M,,,100.35,,,,,,NA
2018-07-11 3:00,2018,7,11,3:00,19.2,,11.1,,59,,,M,,M,,,100.4,,,,,,NA
2018-07-11 4:00,2018,7,11,4:00,18.4,,11.5,,64,,,M,,M,,,100.48,,,,,,NA
2018-07-11 5:00,2018,7,11,5:00,18.9,,11.5,,62,,,M,,M,,,100.53,,,,,,NA
2018-07-11 6:00,2018,7,11,6:00,19.1,,11.9,,63,,,M,,M,,,100.56,,,,,,NA
2018-07-11 7:00,2018,7,11,7:00,20.9,,10.2,,50,,,M,,M,,,100.62,,,,,,NA
2018-07-11 8:00,2018,7,11,8:00,22.6,,9.3,,43,,,M,,M,,,100.63,,,,,,NA
2018-07-11 9:00,2018,7,11,9:00,24.2,,7,,33,,,M,,M,,,100.65,,,,,,NA
2018-07-11 10:00,2018,7,11,10:00,24.7,,6.5,,31,,,M,,M,,,100.66,,25,,,,NA
2018-07-11 11:00,2018,7,11,11:00,25.9,,7.4,,31,,,M,,M,,,100.68,,26,,,,NA
2018-07-11 12:00,2018,7,11,12:00,24.1,,8.7,,37,,,M,,M,,,100.68,,25,,,,NA
2018-07-11 13:00,2018,7,11,13:00,25.5,,9,,35,,,M,,M,,,100.66,,26,,,,NA
2018-07-11 14:00,2018,7,11,14:00,25,,8.7,,35,,,M,,M,,,100.63,,26,,,,NA
2018-07-11 15:00,2018,7,11,15:00,26.4,,9.4,,34,,,M,,M,,,100.63,,27,,,,NA
2018-07-11 16:00,2018,7,11,16:00,25.6,,7.4,,31,,,M,,M,,,100.64,,26,,,,NA
2018-07-11 17:00,2018,7,11,17:00,24.7,,7,,32,,,M,,M,,,100.62,,25,,,,NA
2018-07-11 18:00,2018,7,11,18:00,24,,8.3,,37,,,M,,M,,,100.59,,25,,,,NA
2018-07-11 19:00,2018,7,11,19:00,23.6,,8.6,,38,,,M,,M,,,100.6,,,,,,NA
2018-07-11 20:00,2018,7,11,20:00,22.7,,7.7,,38,,,M,,M,,,100.64,,,,,,NA
2018-07-11 21:00,2018,7,11,21:00,,,,,,,,,,,,,,,,,,,
2018-07-11 22:00,2018,7,11,22:00,,,,,,,,,,,,,,,,,,,
2018-07-11 23:00,2018,7,11,23:00,,,,,,,,,,,,,,,,,,,
2018-07-12 0:00,2018,7,12,0:00,20.7,,7.3,,42,,,M,,M,,,100.8,,,,,,NA
2018-07-12 1:00,2018,7,12,1:00,20,,8.2,,47,,,M,,M,,,100.8,,,,,,NA
2018-07-12 2:00,2018,7,12,2:00,20.1,,8.6,,48,,,M,,M,,,100.8,,,,,,NA
2018-07-12 3:00,2018,7,12,3:00,19,,9.6,,54,,,M,,M,,,100.79,,,,,,NA
2018-07-12 4:00,2018,7,12,4:00,18.5,,9.8,,57,,,M,,M,,,100.85,,,,,,NA
2018-07-12 5:00,2018,7,12,5:00,17.1,,9.9,,63,,,M,,M,,,100.86,,,,,,NA
2018-07-12 6:00,2018,7,12,6:00,17.8,,10.9,,64,,,M,,M,,,100.92,,,,,,NA
2018-07-12 7:00,2018,7,12,7:00,20.6,,10.8,,54,,,M,,M,,,100.97,,,,,,NA
2018-07-12 8:00,2018,7,12,8:00,23.1,,9.9,,43,,,M,,M,,,101.03,,,,,,NA
2018-07-12 9:00,2018,7,12,9:00,25.1,,9.8,,38,,,M,,M,,,101.04,,26,,,,NA
2018-07-12 10:00,2018,7,12,10:00,27.3,,9.9,,34,,,M,,M,,,101,,29,,,,NA
2018-07-12 11:00,2018,7,12,11:00,27.1,,9.3,,33,,,M,,M,,,100.99,,28,,,,NA
2018-07-12 12:00,2018,7,12,12:00,26.7,,9,,33,,,M,,M,,,101.02,,28,,,,NA
2018-07-12 13:00,2018,7,12,13:00,,,,,,,,,,,,,,,,,,,
2018-07-12 14:00,2018,7,12,14:00,,,,,,,,,,,,,,,,,,,
2018-07-12 15:00,2018,7,12,15:00,,,,,,,,,,,,,,,,,,,
2018-07-12 16:00,2018,7,12,16:00,28.1,,8,,28,,,M,,M,,,100.9,,29,,,,NA
2018-07-12 17:00,2018,7,12,17:00,27.7,,6.5,,26,,,M,,M,,,100.87,,28,,,,NA
2018-07-12 18:00,2018,7,12,18:00,27.3,,5.9,,26,,,M,,M,,,100.88,,27,,,,NA
2018-07-12 19:00,2018,7,12,19:00,26.6,,6.8,,29,,,M,,M,,,100.83,,27,,,,NA
2018-07-12 20:00,2018,7,12,20:00,25.9,,7,,30,,,M,,M,,,100.84,,26,,,,NA
2018-07-12 21:00,2018,7,12,21:00,26,,6.5,,29,,,M,,M,,,100.86,,26,,,,NA
2018-07-12 22:00,2018,7,12,22:00,23.9,,8.7,,38,,,M,,M,,,100.79,,25,,,,NA
2018-07-12 23:00,2018,7,12,23:00,24.8,,10.3,,40,,,M,,M,,,100.84,,26,,,,NA
2018-07-13 0:00,2018,7,13,0:00,24.2,,12,,46,,,M,,M,,,100.87,,26,,,,NA
2018-07-13 1:00,2018,7,13,1:00,23.9,,12.7,,50,,,M,,M,,,100.87,,27,,,,NA
2018-07-13 2:00,2018,7,13,2:00,23.8,,12.3,,48,,,M,,M,,,100.85,,26,,,,NA
2018-07-13 3:00,2018,7,13,3:00,23.1,,12.1,,50,,,M,,M,,,100.79,,25,,,,NA
2018-07-13 4:00,2018,7,13,4:00,22.3,,12.2,,53,,,M,,M,,,100.83,,25,,,,NA
2018-07-13 5:00,2018,7,13,5:00,,,,,,,,,,,,,,,,,,,
2018-07-13 6:00,2018,7,13,6:00,,,,,,,,,,,,,,,,,,,
2018-07-13 7:00,2018,7,13,7:00,,,,,,,,,,,,,,,,,,,
2018-07-13 8:00,2018,7,13,8:00,25.6,,15.6,,54,,,M,,M,,,100.86,,30,,,,NA
2018-07-13 9:00,2018,7,13,9:00,27,,11.6,,38,,,M,,M,,,100.84,,29,,,,NA
2018-07-13 10:00,2018,7,13,10:00,27.1,,13.8,,44,,,M,,M,,,100.8,,30,,,,NA
2018-07-13 11:00,2018,7,13,11:00,27,,15.2,,48,,,M,,M,,,100.77,,31,,,,NA
2018-07-13 12:00,2018,7,13,12:00,27.1,,12.9,,42,,,M,,M,,,100.79,,30,,,,NA
2018-07-13 13:00,2018,7,13,13:00,30,,12.4,,34,,,M,,M,,,100.73,,32,,,,NA
2018-07-13 14:00,2018,7,13,14:00,28.9,,11.9,,35,,,M,,M,,,100.69,,31,,,,NA
2018-07-13 15:00,2018,7,13,15:00,28.8,,11.1,,33,,,M,,M,,,100.63,,31,,,,NA
2018-07-13 16:00,2018,7,13,16:00,28.5,,11.5,,35,,,M,,M,,,100.59,,31,,,,NA
2018-07-13 17:00,2018,7,13,17:00,29,,9.6,,30,,,M,,M,,,100.5,,30,,,,NA
2018-07-13 18:00,2018,7,13,18:00,28.3,,11.3,,35,,,M,,M,,,100.49,,30,,,,NA
2018-07-13 19:00,2018,7,13,19:00,27.2,,14.9,,47,,,M,,M,,,100.46,,31,,,,NA
2018-07-13 20:00,2018,7,13,20:00,26.7,,14,,46,,,M,,M,,,100.47,,30,,,,NA
2018-07-13 21:00,2018,7,13,21:00,,,,,,,,,,,,,,,,,,,
2018-07-13 22:00,2018,7,13,22:00,,,,,,,,,,,,,,,,,,,
2018-07-13 23:00,2018,7,13,23:00,,,,,,,,,,,,,,,,,,,
2018-07-14 0:00,2018,7,14,0:00,24.6,,16.5,,61,,,M,,M,,,100.46,,30,,,,NA
2018-07-14 1:00,2018,7,14,1:00,23.8,,16.8,,65,,,M,,M,,,100.41,,29,,,,NA
2018-07-14 2:00,2018,7,14,2:00,23.6,,15.5,,61,,,M,,M,,,100.36,,28,,,,NA
2018-07-14 3:00,2018,7,14,3:00,23.3,,13.9,,56,,,M,,M,,,100.33,,27,,,,NA
2018-07-14 4:00,2018,7,14,4:00,23.4,,13.4,,53,,,M,,M,,,100.38,,26,,,,NA
2018-07-14 5:00,2018,7,14,5:00,23.3,,13,,52,,,M,,M,,,100.39,,26,,,,NA
2018-07-14 6:00,2018,7,14,6:00,23.2,,13.1,,53,,,M,,M,,,100.43,,26,,,,NA
2018-07-14 7:00,2018,7,14,7:00,23.7,,13.2,,52,,,M,,M,,,100.44,,27,,,,NA
2018-07-14 8:00,2018,7,14,8:00,25.2,,12.9,,46,,,M,,M,,,100.44,,28,,,,NA
2018-07-14 9:00,2018,7,14,9:00,26.6,,15.2,,50,,,M,,M,,,100.4,,31,,,,NA
2018-07-14 10:00,2018,7,14,10:00,27.7,,15.1,,46,,,M,,M,,,100.39,,32,,,,NA
2018-07-14 11:00,2018,7,14,11:00,27.5,,15.9,,49,,,M,,M,,,100.43,,32,,,,NA
2018-07-14 12:00,2018,7,14,12:00,26.4,,17.1,,57,,,M,,M,,,100.42,,32,,,,NA
2018-07-14 13:00,2018,7,14,13:00,,,,,,,,,,,,,,,,,,,
2018-07-14 14:00,2018,7,14,14:00,,,,,,,,,,,,,,,,,,,
2018-07-14 15:00,2018,7,14,15:00,,,,,,,,,,,,,,,,,,,
2018-07-14 16:00,2018,7,14,16:00,26.5,,17,,56,,,M,,M,,,100.36,,32,,,,NA
2018-07-14 17:00,2018,7,14,17:00,25.6,,18.4,,64,,,M,,M,,,100.31,,32,,,,NA
2018-07-14 18:00,2018,7,14,18:00,25.3,,18.8,,67,,,M,,M,,,100.25,,32,,,,NA
2018-07-14 19:00,2018,7,14,19:00,24.8,,18.8,,69,,,M,,M,,,100.22,,31,,,,NA
2018-07-14 20:00,2018,7,14,20:00,24.7,,18.5,,68,,,M,,M,,,100.16,,31,,,,NA
2018-07-14 21:00,2018,7,14,21:00,24.1,,17.9,,68,,,M,,M,,,100.23,,30,,,,NA
2018-07-14 22:00,2018,7,14,22:00,23.4,,17.4,,69,,,M,,M,,,100.26,,29,,,,NA
2018-07-14 23:00,2018,7,14,23:00,23,,17.5,,71,,,M,,M,,,100.26,,29,,,,NA
2018-07-15 0:00,2018,7,15,0:00,22.4,,17.8,,76,,,M,,M,,,100.28,,28,,,,NA
2018-07-15 1:00,2018,7,15,1:00,22.3,,17.9,,76,,,M,,M,,,100.24,,28,,,,NA
2018-07-15 2:00,2018,7,15,2:00,21.7,,17.8,,79,,,M,,M,,,100.2,,28,,,,NA
2018-07-15 3:00,2018,7,15,3:00,21.4,,17.6,,79,,,M,,M,,,100.21,,27,,,,NA
2018-07-15 4:00,2018,7,15,4:00,21.4,,18,,81,,,M,,M,,,100.22,,27,,,,NA
2018-07-15 5:00,2018,7,15,5:00,,,,,,,,,,,,,,,,,,,
2018-07-15 6:00,2018,7,15,6:00,,,,,,,,,,,,,,,,,,,
2018-07-15 7:00,2018,7,15,7:00,,,,,,,,,,,,,,,,,,,
2018-07-15 8:00,2018,7,15,8:00,25.4,,17.4,,61,,,M,,M,,,100.22,,31,,,,NA
2018-07-15 9:00,2018,7,15,9:00,27.1,,17.5,,56,,,M,,M,,,100.23,,33,,,,NA
2018-07-15 10:00,2018,7,15,10:00,27.6,,16.7,,51,,,M,,M,,,100.23,,33,,,,NA
2018-07-15 11:00,2018,7,15,11:00,27.3,,16.9,,53,,,M,,M,,,100.25,,33,,,,NA
2018-07-15 12:00,2018,7,15,12:00,28.1,,17.3,,52,,,M,,M,,,100.25,,34,,,,NA
2018-07-15 13:00,2018,7,15,13:00,27.7,,17.2,,53,,,M,,M,,,100.24,,33,,,,NA
2018-07-15 14:00,2018,7,15,14:00,28.3,,16.8,,50,,,M,,M,,,100.2,,33,,,,NA
2018-07-15 15:00,2018,7,15,15:00,29.6,,16.3,,45,,,M,,M,,,100.16,,34,,,,NA
2018-07-15 16:00,2018,7,15,16:00,29.8,,15.1,,41,,,M,,M,,,100.12,,34,,,,NA
2018-07-15 17:00,2018,7,15,17:00,28.5,,16.7,,49,,,M,,M,,,100.06,,34,,,,NA
2018-07-15 18:00,2018,7,15,18:00,27.9,,16.1,,49,,,M,,M,,,100.04,,33,,,,NA
2018-07-15 19:00,2018,7,15,19:00,27.6,,16.4,,51,,,M,,M,,,100.03,,32,,,,NA
2018-07-15 20:00,2018,7,15,20:00,26.6,,16.3,,53,,,M,,M,,,100.05,,31,,,,NA
2018-07-15 21:00,2018,7,15,21:00,,,,,,,,,,,,,,,,,,,
2018-07-15 22:00,2018,7,15,22:00,,,,,,,,,,,,,,,,,,,
2018-07-15 23:00,2018,7,15,23:00,,,,,,,,,,,,,,,,,,,
2018-07-16 0:00,2018,7,16,0:00,23.8,,17.7,,69,,,M,,M,,,100.07,,30,,,,NA
2018-07-16 1:00,2018,7,16,1:00,23.7,,18.4,,72,,,M,,M,,,100.08,,30,,,,NA
2018-07-16 2:00,2018,7,16,2:00,24.1,,19.4,,75,,,M,,M,,,100.05,,31,,,,NA
2018-07-16 3:00,2018,7,16,3:00,23.9,,20.4,,81,,,M,,M,,,100.03,,32,,,,NA
2018-07-16 4:00,2018,7,16,4:00,23.6,,20.6,,84,,,M,,M,,,100.01,,32,,,,NA
2018-07-16 5:00,2018,7,16,5:00,23.7,,21.2,,86,,,M,,M,,,100.02,,32,,,,NA
2018-07-16 6:00,2018,7,16,6:00,24.1,,21.1,,84,,,M,,M,,,100.03,,33,,,,NA
2018-07-16 7:00,2018,7,16,7:00,25.5,,20.1,,72,,,M,,M,,,100.02,,33,,,,NA
2018-07-16 8:00,2018,7,16,8:00,,,,,,,,,,,,,,,,,,,
2018-07-16 9:00,2018,7,16,9:00,,,,,,,,,,,,,,,,,,,
2018-07-16 10:00,2018,7,16,10:00,,,,,,,,,,,,,,,,,,,
2018-07-16 11:00,2018,7,16,11:00,,,,,,,,,,,,,,,,,,,
2018-07-16 12:00,2018,7,16,12:00,,,,,,,,,,,,,,,,,,,
2018-07-16 13:00,2018,7,16,13:00,29.5,,17.9,,50,,,M,,M,,,99.88,,35,,,,NA
2018-07-16 14:00,2018,7,16,14:00,30.2,,18.6,,50,,,M,,M,,,99.75,,37,,,,NA
2018-07-16 15:00,2018,7,16,15:00,24.8,,19.4,,72,,,M,,M,,,99.77,,32,,,,NA
2018-07-16 16:00,2018,7,16,16:00,26.9,,18.6,,60,,,M,,M,,,99.73,,33,,,,NA
2018-07-16 17:00,2018,7,16,17:00,27.4,,18.7,,59,,,M,,M,,,99.66,,34,,,,NA
2018-07-16 18:00,2018,7,16,18:00,27.5,,18.8,,59,,,M,,M,,,99.72,,34,,,,NA
2018-07-16 19:00,2018,7,16,19:00,22.2,,20.1,,88,,,M,,M,,,99.67,,30,,,,NA
2018-07-16 20:00,2018,7,16,20:00,23.1,,20.9,,88,,,M,,M,,,99.57,,31,,,,NA
2018-07-16 21:00,2018,7,16,21:00,22.3,,20,,87,,,M,,M,,,99.57,,30,,,,NA
2018-07-16 22:00,2018,7,16,22:00,22.6,,20.6,,89,,,M,,M,,,99.69,,31,,,,NA
2018-07-16 23:00,2018,7,16,23:00,23,,20.9,,89,,,M,,M,,,99.72,,31,,,,NA
2018-07-17 0:00,2018,7,17,0:00,22.7,,20,,84,,,M,,M,,,99.64,,30,,,,NA
2018-07-17 1:00,2018,7,17,1:00,23.3,,19.6,,80,,,M,,M,,,99.62,,31,,,,NA
2018-07-17 2:00,2018,7,17,2:00,22.4,,19.3,,83,,,M,,M,,,99.6,,29,,,,NA
2018-07-17 3:00,2018,7,17,3:00,22.3,,18.7,,80,,,M,,M,,,99.61,,29,,,,NA
2018-07-17 4:00,2018,7,17,4:00,21.7,,15.1,,66,,,M,,M,,,99.62,,26,,,,NA
2018-07-17 5:00,2018,7,17,5:00,21.5,,14.1,,63,,,M,,M,,,99.68,,25,,,,NA
2018-07-17 6:00,2018,7,17,6:00,21.7,,12.1,,55,,,M,,M,,,99.74,,,,,,NA
2018-07-17 7:00,2018,7,17,7:00,22.7,,10.9,,47,,,M,,M,,,99.79,,,,,,NA
2018-07-17 8:00,2018,7,17,8:00,23.1,,10.2,,44,,,M,,M,,,99.82,,,,,,NA
2018-07-17 9:00,2018,7,17,9:00,25,,9,,36,,,M,,M,,,99.82,,26,,,,NA
2018-07-17 10:00,2018,7,17,10:00,25.5,,9.9,,37,,,M,,M,,,99.86,,27,,,,NA
2018-07-17 11:00,2018,7,17,11:00,25.6,,8.7,,34,,,M,,M,,,99.9,,26,,,,NA
2018-07-17 12:00,2018,7,17,12:00,26.4,,7.3,,30,,,M,,M,,,99.88,,27,,,,NA
2018-07-17 13:00,2018,7,17,13:00,26.7,,8.3,,31,,,M,,M,,,99.84,,27,,,,NA
2018-07-17 14:00,2018,7,17,14:00,27.9,,8.2,,29,,,M,,M,,,99.82,,28,,,,NA
2018-07-17 15:00,2018,7,17,15:00,28.2,,8.8,,30,,,M,,M,,,99.83,,29,,,,NA
2018-07-17 16:00,2018,7,17,16:00,26.5,,9.4,,34,,,M,,M,,,99.81,,28,,,,NA
2018-07-17 17:00,2018,7,17,17:00,25.5,,11.4,,41,,,M,,M,,,99.83,,27,,,,NA
2018-07-17 18:00,2018,7,17,18:00,24.8,,9.3,,37,,,M,,M,,,99.89,,26,,,,NA
2018-07-17 19:00,2018,7,17,19:00,23.3,,8.8,,40,,,M,,M,,,99.98,,,,,,NA
2018-07-17 20:00,2018,7,17,20:00,22,,10.1,,47,,,M,,M,,,100.04,,,,,,NA
2018-07-17 21:00,2018,7,17,21:00,21.3,,10,,49,,,M,,M,,,100.08,,,,,,NA
2018-07-17 22:00,2018,7,17,22:00,20.6,,10.1,,51,,,M,,M,,,100.12,,,,,,NA
2018-07-17 23:00,2018,7,17,23:00,20,,10.5,,54,,,M,,M,,,100.12,,,,,,NA
2018-07-18 0:00,2018,7,18,0:00,19.3,,11.2,,60,,,M,,M,,,100.15,,,,,,NA
2018-07-18 1:00,2018,7,18,1:00,18.6,,12.1,,66,,,M,,M,,,100.18,,,,,,NA
2018-07-18 2:00,2018,7,18,2:00,19.2,,12,,63,,,M,,M,,,100.21,,,,,,NA
2018-07-18 3:00,2018,7,18,3:00,18.6,,11.8,,65,,,M,,M,,,100.27,,,,,,NA
2018-07-18 4:00,2018,7,18,4:00,18.1,,11.4,,65,,,M,,M,,,100.34,,,,,,NA
2018-07-18 5:00,2018,7,18,5:00,17.6,,11.6,,68,,,M,,M,,,100.41,,,,,,NA
2018-07-18 6:00,2018,7,18,6:00,17.3,,11.3,,68,,,M,,M,,,100.46,,,,,,NA
2018-07-18 7:00,2018,7,18,7:00,18.3,,10.7,,61,,,M,,M,,,100.51,,,,,,NA
2018-07-18 8:00,2018,7,18,8:00,19.7,,9.6,,52,,,M,,M,,,100.54,,,,,,NA
2018-07-18 9:00,2018,7,18,9:00,21.3,,9.9,,48,,,M,,M,,,100.52,,,,,,NA
2018-07-18 10:00,2018,7,18,10:00,21.2,,8.5,,44,,,M,,M,,,100.56,,,,,,NA
2018-07-18 11:00,2018,7,18,11:00,21.8,,8.3,,42,,,M,,M,,,100.56,,,,,,NA
2018-07-18 12:00,2018,7,18,12:00,21.7,,8.7,,43,,,M,,M,,,100.54,,,,,,NA
2018-07-18 13:00,2018,7,18,13:00,22.1,,8.1,,41,,,M,,M,,,100.49,,,,,,NA
2018-07-18 14:00,2018,7,18,14:00,23,,9.3,,42,,,M,,M,,,100.48,,,,,,NA
2018-07-18 15:00,2018,7,18,15:00,23.4,,10.3,,43,,,M,,M,,,100.42,,25,,,,NA
2018-07-18 16:00,2018,7,18,16:00,22.9,,9.6,,43,,,M,,M,,,100.38,,,,,,NA
2018-07-18 17:00,2018,7,18,17:00,22.9,,11.1,,47,,,M,,M,,,100.33,,25,,,,NA
2018-07-18 18:00,2018,7,18,18:00,22.2,,11.3,,50,,,M,,M,,,100.32,,,,,,NA
2018-07-18 19:00,2018,7,18,19:00,22,,11.1,,50,,,M,,M,,,100.32,,,,,,NA
2018-07-18 20:00,2018,7,18,20:00,21.4,,11.3,,52,,,M,,M,,,100.31,,,,,,NA
2018-07-18 21:00,2018,7,18,21:00,21.2,,11.9,,55,,,M,,M,,,100.36,,,,,,NA
2018-07-18 22:00,2018,7,18,22:00,21.2,,10.4,,50,,,M,,M,,,100.4,,,,,,NA
2018-07-18 23:00,2018,7,18,23:00,20.1,,3.8,,34,,,M,,M,,,100.41,,,,,,NA
2018-07-19 0:00,2018,7,19,0:00,19,,2.5,,33,,,M,,M,,,100.42,,,,,,NA
2018-07-19 1:00,2018,7,19,1:00,18.5,,2.3,,34,,,M,,M,,,100.43,,,,,,NA
2018-07-19 2:00,2018,7,19,2:00,17.8,,5,,43,,,M,,M,,,100.4,,,,,,NA
2018-07-19 3:00,2018,7,19,3:00,17.4,,6.5,,49,,,M,,M,,,100.43,,,,,,NA
2018-07-19 4:00,2018,7,19,4:00,16.1,,7.4,,56,,,M,,M,,,100.46,,,,,,NA
2018-07-19 5:00,2018,7,19,5:00,16.6,,6.9,,53,,,M,,M,,,100.52,,,,,,NA
2018-07-19 6:00,2018,7,19,6:00,16.4,,7.9,,57,,,M,,M,,,100.52,,,,,,NA
2018-07-19 7:00,2018,7,19,7:00,18.9,,7.8,,49,,,M,,M,,,100.53,,,,,,NA
2018-07-19 8:00,2018,7,19,8:00,21.3,,5.2,,35,,,M,,M,,,100.58,,,,,,NA
2018-07-19 9:00,2018,7,19,9:00,23,,5,,31,,,M,,M,,,100.58,,,,,,NA
2018-07-19 10:00,2018,7,19,10:00,24.1,,7.2,,34,,,M,,M,,,100.57,,,,,,NA
2018-07-19 11:00,2018,7,19,11:00,23.9,,7.5,,35,,,M,,M,,,100.56,,,,,,NA
2018-07-19 12:00,2018,7,19,12:00,25.7,,9.3,,36,,,M,,M,,,100.56,,27,,,,NA
2018-07-19 13:00,2018,7,19,13:00,25.2,,7,,31,,,M,,M,,,100.51,,25,,,,NA
2018-07-19 14:00,2018,7,19,14:00,26.2,,7.9,,31,,,M,,M,,,100.47,,27,,,,NA
2018-07-19 15:00,2018,7,19,15:00,26.5,,7.7,,30,,,M,,M,,,100.44,,27,,,,NA
2018-07-19 16:00,2018,7,19,16:00,26.7,,7.9,,30,,,M,,M,,,100.4,,27,,,,NA
2018-07-19 17:00,2018,7,19,17:00,25.9,,9,,34,,,M,,M,,,100.37,,27,,,,NA
2018-07-19 18:00,2018,7,19,18:00,24.7,,9.6,,39,,,M,,M,,,100.37,,26,,,,NA
2018-07-19 19:00,2018,7,19,19:00,24.4,,9.9,,40,,,M,,M,,,100.35,,26,,,,NA
2018-07-19 20:00,2018,7,19,20:00,23.2,,13.2,,53,,,M,,M,,,100.36,,26,,,,NA
2018-07-19 21:00,2018,7,19,21:00,22.7,,14.6,,60,,,M,,M,,,100.38,,26,,,,NA
2018-07-19 22:00,2018,7,19,22:00,22.2,,15.4,,65,,,M,,M,,,100.37,,26,,,,NA
2018-07-19 23:00,2018,7,19,23:00,22.2,,14.3,,61,,,M,,M,,,100.37,,26,,,,NA
2018-07-20 0:00,2018,7,20,0:00,21.7,,13.8,,61,,,M,,M,,,100.37,,25,,,,NA
2018-07-20 1:00,2018,7,20,1:00,21.2,,14.3,,65,,,M,,M,,,100.34,,25,,,,NA
2018-07-20 2:00,2018,7,20,2:00,21.4,,14.7,,66,,,M,,M,,,100.32,,25,,,,NA
2018-07-20 3:00,2018,7,20,3:00,19.7,,15,,74,,,M,,M,,,100.31,,,,,,NA
2018-07-20 4:00,2018,7,20,4:00,19.6,,15.7,,78,,,M,,M,,,100.28,,,,,,NA
2018-07-20 5:00,2018,7,20,5:00,19.7,,16.1,,79,,,M,,M,,,100.28,,,,,,NA
2018-07-20 6:00,2018,7,20,6:00,20.3,,16.4,,79,,,M,,M,,,100.29,,25,,,,NA
2018-07-20 7:00,2018,7,20,7:00,22,,17,,73,,,M,,M,,,100.3,,27,,,,NA
2018-07-20 8:00,2018,7,20,8:00,23.6,,15.8,,61,,,M,,M,,,100.3,,28,,,,NA
2018-07-20 9:00,2018,7,20,9:00,24.8,,14.8,,54,,,M,,M,,,100.28,,29,,,,NA
2018-07-20 10:00,2018,7,20,10:00,25.4,,14.8,,52,,,M,,M,,,100.26,,29,,,,NA
2018-07-20 11:00,2018,7,20,11:00,26.1,,15.6,,53,,,M,,M,,,100.24,,30,,,,NA
2018-07-20 12:00,2018,7,20,12:00,27.3,,14.9,,47,,,M,,M,,,100.2,,31,,,,NA
2018-07-20 13:00,2018,7,20,13:00,27.2,,12.2,,39,,,M,,M,,,100.16,,30,,,,NA
2018-07-20 14:00,2018,7,20,14:00,27.3,,13.8,,43,,,M,,M,,,100.08,,31,,,,NA
2018-07-20 15:00,2018,7,20,15:00,28,,14.2,,43,,,M,,M,,,100.04,,31,,,,NA
2018-07-20 16:00,2018,7,20,16:00,27.3,,15.3,,48,,,M,,M,,,99.96,,31,,,,NA
2018-07-20 17:00,2018,7,20,17:00,26.5,,16.2,,53,,,M,,M,,,99.92,,31,,,,NA
2018-07-20 18:00,2018,7,20,18:00,26.8,,16.4,,53,,,M,,M,,,99.86,,32,,,,NA
2018-07-20 19:00,2018,7,20,19:00,25.9,,17,,58,,,M,,M,,,99.86,,31,,,,NA
2018-07-20 20:00,2018,7,20,20:00,25.5,,17.1,,60,,,M,,M,,,99.83,,31,,,,NA
2018-07-20 21:00,2018,7,20,21:00,26.6,,16.1,,53,,,M,,M,,,99.85,,31,,,,NA
2018-07-20 22:00,2018,7,20,22:00,26.2,,15.4,,51,,,M,,M,,,99.86,,30,,,,NA
2018-07-20 23:00,2018,7,20,23:00,25.9,,15.2,,51,,,M,,M,,,99.87,,30,,,,NA
2018-07-21 0:00,2018,7,21,0:00,25.1,,16,,57,,,M,,M,,,99.92,,30,,,,NA
2018-07-21 1:00,2018,7,21,1:00,24.5,,16.4,,61,,,M,,M,,,99.9,,29,,,,NA
2018-07-21 2:00,2018,7,21,2:00,22.3,,17.5,,74,,,M,,M,,,99.9,,28,,,,NA
2018-07-21 3:00,2018,7,21,3:00,22.5,,17.1,,72,,,M,,M,,,99.88,,28,,,,NA
2018-07-21 4:00,2018,7,21,4:00,22.8,,16.5,,68,,,M,,M,,,99.86,,28,,,,NA
2018-07-21 5:00,2018,7,21,5:00,22.7,,15.5,,64,,,M,,M,,,99.87,,27,,,,NA
2018-07-21 6:00,2018,7,21,6:00,22.7,,15,,62,,,M,,M,,,99.88,,27,,,,NA
2018-07-21 7:00,2018,7,21,7:00,22.8,,15.4,,63,,,M,,M,,,99.92,,27,,,,NA
2018-07-21 8:00,2018,7,21,8:00,23.6,,15.4,,60,,,M,,M,,,99.95,,28,,,,NA
2018-07-21 9:00,2018,7,21,9:00,23.3,,14.7,,58,,,M,,M,,,99.96,,27,,,,NA
2018-07-21 10:00,2018,7,21,10:00,24.2,,14.8,,56,,,M,,M,,,99.98,,28,,,,NA
2018-07-21 11:00,2018,7,21,11:00,23.8,,15.7,,61,,,M,,M,,,100,,28,,,,NA
2018-07-21 12:00,2018,7,21,12:00,23.7,,16.4,,63,,,M,,M,,,99.99,,29,,,,NA
2018-07-21 13:00,2018,7,21,13:00,23.3,,17,,68,,,M,,M,,,99.98,,29,,,,NA
2018-07-21 14:00,2018,7,21,14:00,23.4,,17.1,,67,,,M,,M,,,99.94,,29,,,,NA
2018-07-21 15:00,2018,7,21,15:00,23.7,,16.7,,65,,,M,,M,,,99.91,,29,,,,NA
2018-07-21 16:00,2018,7,21,16:00,24,,16.6,,63,,,M,,M,,,99.9,,29,,,,NA
2018-07-21 17:00,2018,7,21,17:00,24.1,,16.3,,62,,,M,,M,,,99.87,,29,,,,NA
2018-07-21 18:00,2018,7,21,18:00,23.8,,15.7,,61,,,M,,M,,,99.88,,28,,,,NA
2018-07-21 19:00,2018,7,21,19:00,23.9,,16.2,,62,,,M,,M,,,99.89,,29,,,,NA
2018-07-21 20:00,2018,7,21,20:00,23.8,,17.2,,66,,,M,,M,,,99.92,,29,,,,NA
2018-07-21 21:00,2018,7,21,21:00,23.9,,14.8,,57,,,M,,M,,,99.95,,28,,,,NA
2018-07-21 22:00,2018,7,21,22:00,22.5,,12.1,,52,,,M,,M,,,99.98,,25,,,,NA
2018-07-21 23:00,2018,7,21,23:00,21.8,,12.3,,55,,,M,,M,,,99.97,,,,,,NA
2018-07-22 0:00,2018,7,22,0:00,19.5,,13.2,,67,,,M,,M,,,100,,,,,,NA
2018-07-22 1:00,2018,7,22,1:00,18.9,,13.6,,71,,,M,,M,,,99.94,,,,,,NA
2018-07-22 2:00,2018,7,22,2:00,19.1,,14.3,,74,,,M,,M,,,99.81,,,,,,NA
2018-07-22 3:00,2018,7,22,3:00,18.6,,14.8,,79,,,M,,M,,,99.83,,,,,,NA
2018-07-22 4:00,2018,7,22,4:00,17.9,,14.7,,82,,,M,,M,,,99.72,,,,,,NA
2018-07-22 5:00,2018,7,22,5:00,17.7,,15,,84,,,M,,M,,,99.62,,,,,,NA
2018-07-22 6:00,2018,7,22,6:00,18.2,,15.4,,84,,,M,,M,,,99.57,,,,,,NA
2018-07-22 7:00,2018,7,22,7:00,18.1,,15.3,,84,,,M,,M,,,99.52,,,,,,NA
2018-07-22 8:00,2018,7,22,8:00,17.5,,15.4,,87,,,M,,M,,,99.42,,,,,,NA
2018-07-22 9:00,2018,7,22,9:00,17.8,,15.7,,88,,,M,,M,,,99.36,,,,,,NA
2018-07-22 10:00,2018,7,22,10:00,18.5,,16.6,,89,,,M,,M,,,99.32,,,,,,NA
2018-07-22 11:00,2018,7,22,11:00,19.1,,17.3,,89,,,M,,M,,,99.31,,,,,,NA
2018-07-22 12:00,2018,7,22,12:00,19.9,,18.1,,90,,,M,,M,,,99.32,,,,,,NA
2018-07-22 13:00,2018,7,22,13:00,20.8,,17.3,,80,,,M,,M,,,99.39,,26,,,,NA
2018-07-22 14:00,2018,7,22,14:00,22.5,,16.4,,68,,,M,,M,,,99.45,,27,,,,NA
2018-07-22 15:00,2018,7,22,15:00,21.9,,16.3,,71,,,M,,M,,,99.55,,27,,,,NA
2018-07-22 16:00,2018,7,22,16:00,22.3,,16.4,,69,,,M,,M,,,99.59,,27,,,,NA
2018-07-22 17:00,2018,7,22,17:00,22.5,,16.4,,69,,,M,,M,,,99.65,,27,,,,NA
2018-07-22 18:00,2018,7,22,18:00,22.6,,16.6,,69,,,M,,M,,,99.74,,28,,,,NA
2018-07-22 19:00,2018,7,22,19:00,22.4,,16.7,,70,,,M,,M,,,99.81,,27,,,,NA
2018-07-22 20:00,2018,7,22,20:00,22,,17,,74,,,M,,M,,,99.83,,27,,,,NA
2018-07-22 21:00,2018,7,22,21:00,21.5,,16.7,,74,,,M,,M,,,99.87,,27,,,,NA
2018-07-22 22:00,2018,7,22,22:00,21.6,,16.4,,72,,,M,,M,,,99.86,,26,,,,NA
2018-07-22 23:00,2018,7,22,23:00,21.8,,16.7,,73,,,M,,M,,,99.88,,27,,,,NA
2018-07-23 0:00,2018,7,23,0:00,21.9,,16.8,,73,,,M,,M,,,99.86,,27,,,,NA
2018-07-23 1:00,2018,7,23,1:00,22.3,,17.9,,76,,,M,,M,,,99.83,,28,,,,NA
2018-07-23 2:00,2018,7,23,2:00,21.8,,18.4,,81,,,M,,M,,,99.82,,28,,,,NA
2018-07-23 3:00,2018,7,23,3:00,21.8,,18.4,,81,,,M,,M,,,99.84,,28,,,,NA
2018-07-23 4:00,2018,7,23,4:00,21.4,,18.3,,83,,,M,,M,,,99.85,,28,,,,NA
2018-07-23 5:00,2018,7,23,5:00,21,,18.4,,85,,,M,,M,,,99.91,,27,,,,NA
2018-07-23 6:00,2018,7,23,6:00,21.2,,18.6,,85,,,M,,M,,,100,,28,,,,NA
2018-07-23 7:00,2018,7,23,7:00,22.4,,19.1,,82,,,M,,M,,,100.07,,29,,,,NA
2018-07-23 8:00,2018,7,23,8:00,23.2,,19.2,,78,,,M,,M,,,100.05,,30,,,,NA
2018-07-23 9:00,2018,7,23,9:00,25.2,,18.9,,68,,,M,,M,,,100.04,,32,,,,NA
2018-07-23 10:00,2018,7,23,10:00,24.1,,18.2,,69,,,M,,M,,,100.07,,30,,,,NA
2018-07-23 11:00,2018,7,23,11:00,24.2,,18.6,,71,,,M,,M,,,100.12,,31,,,,NA
2018-07-23 12:00,2018,7,23,12:00,25,,18.7,,68,,,M,,M,,,100.13,,32,,,,NA
2018-07-23 13:00,2018,7,23,13:00,27,,18.7,,60,,,M,,M,,,100.1,,34,,,,NA
2018-07-23 14:00,2018,7,23,14:00,25.8,,19.7,,69,,,M,,M,,,100.1,,33,,,,NA
2018-07-23 15:00,2018,7,23,15:00,24.7,,19.6,,74,,,M,,M,,,100.08,,32,,,,NA
2018-07-23 16:00,2018,7,23,16:00,24.8,,19.6,,73,,,M,,M,,,100.05,,32,,,,NA
2018-07-23 17:00,2018,7,23,17:00,25.2,,19.5,,71,,,M,,M,,,100.02,,32,,,,NA
2018-07-23 18:00,2018,7,23,18:00,24.5,,19.3,,73,,,M,,M,,,100.07,,32,,,,NA
2018-07-23 19:00,2018,7,23,19:00,23.4,,19.6,,79,,,M,,M,,,100.1,,31,,,,NA
2018-07-23 20:00,2018,7,23,20:00,24.1,,19.1,,74,,,M,,M,,,100.08,,31,,,,NA
2018-07-23 21:00,2018,7,23,21:00,23.4,,19.7,,80,,,M,,M,,,100.11,,31,,,,NA
2018-07-23 22:00,2018,7,23,22:00,22.9,,19.9,,84,,,M,,M,,,100.09,,30,,,,NA
2018-07-23 23:00,2018,7,23,23:00,22.5,,19.5,,83,,,M,,M,,,100.07,,30,,,,NA
2018-07-24 0:00,2018,7,24,0:00,22.6,,19.6,,83,,,M,,M,,,100.08,,30,,,,NA
2018-07-24 1:00,2018,7,24,1:00,22.7,,19.6,,83,,,M,,M,,,100.08,,30,,,,NA
2018-07-24 2:00,2018,7,24,2:00,22.7,,19.5,,82,,,M,,M,,,100.07,,30,,,,NA
2018-07-24 3:00,2018,7,24,3:00,22.9,,19.5,,81,,,M,,M,,,100.07,,30,,,,NA
2018-07-24 4:00,2018,7,24,4:00,22.6,,19.4,,82,,,M,,M,,,100.08,,30,,,,NA
2018-07-24 5:00,2018,7,24,5:00,22.1,,19.4,,85,,,M,,M,,,100.1,,29,,,,NA
2018-07-24 6:00,2018,7,24,6:00,22.5,,19.6,,84,,,M,,M,,,100.13,,30,,,,NA
2018-07-24 7:00,2018,7,24,7:00,24.5,,20.2,,77,,,M,,M,,,100.12,,32,,,,NA
2018-07-24 8:00,2018,7,24,8:00,25.5,,19.8,,70,,,M,,M,,,100.17,,33,,,,NA
2018-07-24 9:00,2018,7,24,9:00,25.3,,19.1,,69,,,M,,M,,,100.19,,32,,,,NA
2018-07-24 10:00,2018,7,24,10:00,25.1,,19.6,,72,,,M,,M,,,100.2,,32,,,,NA
2018-07-24 11:00,2018,7,24,11:00,26.8,,19.3,,64,,,M,,M,,,100.18,,34,,,,NA
2018-07-24 12:00,2018,7,24,12:00,27.9,,18.9,,58,,,M,,M,,,100.14,,35,,,,NA
2018-07-24 13:00,2018,7,24,13:00,27.9,,19.4,,60,,,M,,M,,,100.09,,35,,,,NA
2018-07-24 14:00,2018,7,24,14:00,29.4,,19.3,,55,,,M,,M,,,100.03,,36,,,,NA
2018-07-24 15:00,2018,7,24,15:00,29.6,,18.7,,52,,,M,,M,,,99.97,,36,,,,NA
2018-07-24 16:00,2018,7,24,16:00,28.9,,18.9,,55,,,M,,M,,,99.92,,36,,,,NA
2018-07-24 17:00,2018,7,24,17:00,28.6,,19,,56,,,M,,M,,,99.88,,35,,,,NA
2018-07-24 18:00,2018,7,24,18:00,24.1,,19.6,,76,,,M,,M,,,99.91,,31,,,,NA
2018-07-24 19:00,2018,7,24,19:00,22.8,,20.8,,89,,,M,,M,,,99.88,,31,,,,NA
2018-07-24 20:00,2018,7,24,20:00,22.7,,20.7,,89,,,M,,M,,,99.94,,31,,,,NA
2018-07-24 21:00,2018,7,24,21:00,22.6,,20.5,,88,,,M,,M,,,99.95,,31,,,,NA
2018-07-24 22:00,2018,7,24,22:00,22.8,,20.8,,89,,,M,,M,,,99.98,,31,,,,NA
2018-07-24 23:00,2018,7,24,23:00,22.7,,20.5,,87,,,M,,M,,,99.94,,31,,,,NA
2018-07-25 0:00,2018,7,25,0:00,22.8,,21,,89,,,M,,M,,,99.89,,31,,,,NA
2018-07-25 1:00,2018,7,25,1:00,22.9,,20.7,,88,,,M,,M,,,99.85,,31,,,,NA
2018-07-25 2:00,2018,7,25,2:00,22.6,,20.5,,88,,,M,,M,,,99.81,,31,,,,NA
2018-07-25 3:00,2018,7,25,3:00,22.7,,20.5,,88,,,M,,M,,,99.8,,31,,,,NA
2018-07-25 4:00,2018,7,25,4:00,22.4,,20.4,,89,,,M,,M,,,99.79,,30,,,,NA
2018-07-25 5:00,2018,7,25,5:00,22.1,,20,,88,,,M,,M,,,99.8,,30,,,,NA
2018-07-25 6:00,2018,7,25,6:00,22.2,,19.9,,87,,,M,,M,,,99.78,,30,,,,NA
2018-07-25 7:00,2018,7,25,7:00,22,,19,,83,,,M,,M,,,99.81,,29,,,,NA
2018-07-25 8:00,2018,7,25,8:00,22.6,,19,,80,,,M,,M,,,99.82,,29,,,,NA
2018-07-25 9:00,2018,7,25,9:00,24.2,,19.1,,73,,,M,,M,,,99.84,,31,,,,NA
2018-07-25 10:00,2018,7,25,10:00,25.4,,18.8,,67,,,M,,M,,,99.84,,32,,,,NA
2018-07-25 11:00,2018,7,25,11:00,26.4,,19.2,,64,,,M,,M,,,99.85,,33,,,,NA
2018-07-25 12:00,2018,7,25,12:00,25.7,,17.6,,61,,,M,,M,,,99.85,,31,,,,NA
2018-07-25 13:00,2018,7,25,13:00,26.9,,17.5,,56,,,M,,M,,,99.83,,33,,,,NA
2018-07-25 14:00,2018,7,25,14:00,27.6,,19.5,,62,,,M,,M,,,99.77,,35,,,,NA
2018-07-25 15:00,2018,7,25,15:00,27.8,,18.4,,57,,,M,,M,,,99.71,,34,,,,NA
2018-07-25 16:00,2018,7,25,16:00,28.6,,15,,44,,,M,,M,,,99.69,,33,,,,NA
2018-07-25 17:00,2018,7,25,17:00,28.5,,15.5,,45,,,M,,M,,,99.71,,33,,,,NA
2018-07-25 18:00,2018,7,25,18:00,27.9,,14.7,,44,,,M,,M,,,99.69,,32,,,,NA
2018-07-25 19:00,2018,7,25,19:00,26.9,,15.8,,51,,,M,,M,,,99.73,,31,,,,NA
2018-07-25 20:00,2018,7,25,20:00,25.6,,13.9,,48,,,M,,M,,,99.79,,29,,,,NA
2018-07-25 21:00,2018,7,25,21:00,24.1,,12.1,,47,,,M,,M,,,99.8,,26,,,,NA
2018-07-25 22:00,2018,7,25,22:00,23.1,,12,,50,,,M,,M,,,99.81,,25,,,,NA
2018-07-25 23:00,2018,7,25,23:00,21,,13.3,,61,,,M,,M,,,99.8,,,,,,NA
2018-07-26 0:00,2018,7,26,0:00,20.3,,14,,67,,,M,,M,,,99.79,,,,,,NA
2018-07-26 1:00,2018,7,26,1:00,19.7,,14.2,,71,,,M,,M,,,99.73,,,,,,NA
2018-07-26 2:00,2018,7,26,2:00,19,,13.7,,71,,,M,,M,,,99.73,,,,,,NA
2018-07-26 3:00,2018,7,26,3:00,18.8,,13.5,,71,,,M,,M,,,99.69,,,,,,NA
2018-07-26 4:00,2018,7,26,4:00,18.6,,13.2,,71,,,M,,M,,,99.7,,,,,,NA
2018-07-26 5:00,2018,7,26,5:00,18.2,,12.4,,69,,,M,,M,,,99.71,,,,,,NA
2018-07-26 6:00,2018,7,26,6:00,18.4,,13.6,,74,,,M,,M,,,99.73,,,,,,NA
2018-07-26 7:00,2018,7,26,7:00,21.3,,13.5,,61,,,M,,M,,,99.76,,,,,,NA
2018-07-26 8:00,2018,7,26,8:00,23.6,,13.6,,53,,,M,,M,,,99.72,,27,,,,NA
2018-07-26 9:00,2018,7,26,9:00,24.3,,15.7,,59,,,M,,M,,,99.72,,29,,,,NA
2018-07-26 10:00,2018,7,26,10:00,24.3,,15.8,,59,,,M,,M,,,99.72,,29,,,,NA
2018-07-26 11:00,2018,7,26,11:00,26.2,,16.6,,55,,,M,,M,,,99.7,,31,,,,NA
2018-07-26 12:00,2018,7,26,12:00,26.5,,16.8,,55,,,M,,M,,,99.66,,32,,,,NA
2018-07-26 13:00,2018,7,26,13:00,27.3,,17.6,,55,,,M,,M,,,99.59,,33,,,,NA
2018-07-26 14:00,2018,7,26,14:00,28.4,,16.8,,50,,,M,,M,,,99.54,,34,,,,NA
2018-07-26 15:00,2018,7,26,15:00,27,,16.7,,53,,,M,,M,,,99.44,,32,,,,NA
2018-07-26 16:00,2018,7,26,16:00,22.7,,15.9,,66,,,M,,M,,,99.55,,27,,,,NA
2018-07-26 17:00,2018,7,26,17:00,23,,17.5,,71,,,M,,M,,,99.61,,29,,,,NA
2018-07-26 18:00,2018,7,26,18:00,22.5,,15.8,,66,,,M,,M,,,99.63,,27,,,,NA
2018-07-26 19:00,2018,7,26,19:00,21.4,,15.6,,70,,,M,,M,,,99.64,,26,,,,NA
2018-07-26 20:00,2018,7,26,20:00,22.1,,17,,73,,,M,,M,,,99.68,,27,,,,NA
2018-07-26 21:00,2018,7,26,21:00,22.4,,17.1,,72,,,M,,M,,,99.78,,28,,,,NA
2018-07-26 22:00,2018,7,26,22:00,22.4,,15.6,,66,,,M,,M,,,99.76,,27,,,,NA
2018-07-26 23:00,2018,7,26,23:00,22.1,,16.4,,70,,,M,,M,,,99.75,,27,,,,NA
2018-07-27 0:00,2018,7,27,0:00,21.6,,16.8,,74,,,M,,M,,,99.73,,27,,,,NA
2018-07-27 1:00,2018,7,27,1:00,20.9,,17.4,,80,,,M,,M,,,99.7,,26,,,,NA
2018-07-27 2:00,2018,7,27,2:00,19.9,,17,,83,,,M,,M,,,99.68,,,,,,NA
2018-07-27 3:00,2018,7,27,3:00,19.9,,17.4,,86,,,M,,M,,,99.7,,,,,,NA
2018-07-27 4:00,2018,7,27,4:00,19.3,,16.8,,85,,,M,,M,,,99.71,,,,,,NA
2018-07-27 5:00,2018,7,27,5:00,18.6,,16,,85,,,M,,M,,,99.75,,,,,,NA
2018-07-27 6:00,2018,7,27,6:00,19.6,,15.9,,79,,,M,,M,,,99.8,,,,,,NA
2018-07-27 7:00,2018,7,27,7:00,20.4,,14.9,,71,,,M,,M,,,99.88,,,,,,NA
2018-07-27 8:00,2018,7,27,8:00,21.5,,14.4,,64,,,M,,M,,,99.92,,25,,,,NA
2018-07-27 9:00,2018,7,27,9:00,23.4,,14.5,,58,,,M,,M,,,99.96,,27,,,,NA
2018-07-27 10:00,2018,7,27,10:00,23.3,,14.8,,59,,,M,,M,,,99.98,,27,,,,NA
2018-07-27 11:00,2018,7,27,11:00,23.6,,15.3,,60,,,M,,M,,,99.99,,28,,,,NA
2018-07-27 12:00,2018,7,27,12:00,24.4,,13.8,,51,,,M,,M,,,99.98,,28,,,,NA
2018-07-27 13:00,2018,7,27,13:00,26,,11.8,,41,,,M,,M,,,99.98,,28,,,,NA
2018-07-27 14:00,2018,7,27,14:00,26,,11.1,,39,,,M,,M,,,99.97,,28,,,,NA
2018-07-27 15:00,2018,7,27,15:00,25.1,,11.7,,43,,,M,,M,,,99.98,,27,,,,NA
2018-07-27 16:00,2018,7,27,16:00,26.1,,11.9,,41,,,M,,M,,,99.96,,28,,,,NA
2018-07-27 17:00,2018,7,27,17:00,25,,11.7,,44,,,M,,M,,,99.98,,27,,,,NA
2018-07-27 18:00,2018,7,27,18:00,23.9,,12.5,,49,,,M,,M,,,99.98,,26,,,,NA
2018-07-27 19:00,2018,7,27,19:00,23.6,,11.6,,47,,,M,,M,,,99.98,,26,,,,NA
2018-07-27 20:00,2018,7,27,20:00,23.1,,12.4,,51,,,M,,M,,,100.02,,26,,,,NA
2018-07-27 21:00,2018,7,27,21:00,22.5,,13.5,,57,,,M,,M,,,100.08,,26,,,,NA
2018-07-27 22:00,2018,7,27,22:00,19.7,,11.6,,60,,,M,,M,,,100.11,,,,,,NA
2018-07-27 23:00,2018,7,27,23:00,18.9,,13.9,,73,,,M,,M,,,100.07,,,,,,NA
2018-07-28 0:00,2018,7,28,0:00,18.6,,14.5,,77,,,M,,M,,,100.06,,,,,,NA
2018-07-28 1:00,2018,7,28,1:00,18.8,,14.5,,76,,,M,,M,,,100.09,,,,,,NA
2018-07-28 2:00,2018,7,28,2:00,17.9,,14.4,,80,,,M,,M,,,100.08,,,,,,NA
2018-07-28 3:00,2018,7,28,3:00,17.6,,14.2,,80,,,M,,M,,,100.1,,,,,,NA
2018-07-28 4:00,2018,7,28,4:00,17.4,,14.2,,82,,,M,,M,,,100.08,,,,,,NA
2018-07-28 5:00,2018,7,28,5:00,17,,14.1,,83,,,M,,M,,,100.12,,,,,,NA
2018-07-28 6:00,2018,7,28,6:00,17.1,,14.2,,83,,,M,,M,,,100.14,,,,,,NA
2018-07-28 7:00,2018,7,28,7:00,18,,13.9,,77,,,M,,M,,,100.22,,,,,,NA
2018-07-28 8:00,2018,7,28,8:00,19.1,,13.7,,71,,,M,,M,,,100.25,,,,,,NA
2018-07-28 9:00,2018,7,28,9:00,20,,14.4,,70,,,M,,M,,,100.26,,,,,,NA
2018-07-28 10:00,2018,7,28,10:00,20.9,,13.3,,62,,,M,,M,,,100.28,,,,,,NA
2018-07-28 11:00,2018,7,28,11:00,22.2,,15,,64,,,M,,M,,,100.28,,26,,,,NA
2018-07-28 12:00,2018,7,28,12:00,21.4,,13.2,,60,,,M,,M,,,100.28,,,,,,NA
2018-07-28 13:00,2018,7,28,13:00,22.2,,12.3,,53,,,M,,M,,,100.26,,25,,,,NA
2018-07-28 14:00,2018,7,28,14:00,23.4,,10.7,,45,,,M,,M,,,100.27,,25,,,,NA
2018-07-28 15:00,2018,7,28,15:00,22.6,,11.1,,48,,,M,,M,,,100.28,,,,,,NA
2018-07-28 16:00,2018,7,28,16:00,22.7,,11.7,,50,,,M,,M,,,100.28,,25,,,,NA
2018-07-28 17:00,2018,7,28,17:00,21.4,,12,,55,,,M,,M,,,100.32,,,,,,NA
2018-07-28 18:00,2018,7,28,18:00,21.3,,12.2,,56,,,M,,M,,,100.33,,,,,,NA
2018-07-28 19:00,2018,7,28,19:00,20.7,,12.4,,59,,,M,,M,,,100.36,,,,,,NA
2018-07-28 20:00,2018,7,28,20:00,20.6,,12.4,,59,,,M,,M,,,100.4,,,,,,NA
2018-07-28 21:00,2018,7,28,21:00,19.7,,11.7,,60,,,M,,M,,,100.46,,,,,,NA
2018-07-28 22:00,2018,7,28,22:00,18.7,,11.7,,64,,,M,,M,,,100.5,,,,,,NA
2018-07-28 23:00,2018,7,28,23:00,17.6,,12,,70,,,M,,M,,,100.52,,,,,,NA
2018-07-29 0:00,2018,7,29,0:00,17,,11.6,,71,,,M,,M,,,100.49,,,,,,NA
2018-07-29 1:00,2018,7,29,1:00,17,,11.6,,71,,,M,,M,,,100.48,,,,,,NA
2018-07-29 2:00,2018,7,29,2:00,15.6,,11.6,,77,,,M,,M,,,100.54,,,,,,NA
2018-07-29 3:00,2018,7,29,3:00,15.1,,12,,81,,,M,,M,,,100.58,,,,,,NA
2018-07-29 4:00,2018,7,29,4:00,15,,11.8,,81,,,M,,M,,,100.6,,,,,,NA
2018-07-29 5:00,2018,7,29,5:00,14.7,,12,,83,,,M,,M,,,100.63,,,,,,NA
2018-07-29 6:00,2018,7,29,6:00,15,,12.2,,83,,,M,,M,,,100.63,,,,,,NA
2018-07-29 7:00,2018,7,29,7:00,17.7,,12,,69,,,M,,M,,,100.65,,,,,,NA
2018-07-29 8:00,2018,7,29,8:00,20.3,,11.2,,56,,,M,,M,,,100.64,,,,,,NA
2018-07-29 9:00,2018,7,29,9:00,22.4,,11.4,,50,,,M,,M,,,100.63,,,,,,NA
2018-07-29 10:00,2018,7,29,10:00,23,,11.8,,49,,,M,,M,,,100.62,,25,,,,NA
2018-07-29 11:00,2018,7,29,11:00,24.4,,11.8,,45,,,M,,M,,,100.62,,27,,,,NA
2018-07-29 12:00,2018,7,29,12:00,24.1,,11.1,,44,,,M,,M,,,100.58,,26,,,,NA
2018-07-29 13:00,2018,7,29,13:00,24.9,,11.6,,43,,,M,,M,,,100.54,,27,,,,NA
2018-07-29 14:00,2018,7,29,14:00,26.2,,12.8,,44,,,M,,M,,,100.51,,29,,,,NA
2018-07-29 15:00,2018,7,29,15:00,23.6,,12.6,,50,,,M,,M,,,100.52,,26,,,,NA
2018-07-29 16:00,2018,7,29,16:00,22.8,,15.4,,63,,,M,,M,,,100.48,,27,,,,NA
2018-07-29 17:00,2018,7,29,17:00,24.4,,13,,49,,,M,,M,,,100.51,,27,,,,NA
2018-07-29 18:00,2018,7,29,18:00,21,,13.1,,61,,,M,,M,,,100.55,,,,,,NA
2018-07-29 19:00,2018,7,29,19:00,22.1,,12.7,,55,,,M,,M,,,100.51,,25,,,,NA
2018-07-29 20:00,2018,7,29,20:00,21.2,,12.1,,56,,,M,,M,,,100.5,,,,,,NA
2018-07-29 21:00,2018,7,29,21:00,21.1,,13.5,,62,,,M,,M,,,100.52,,,,,,NA
2018-07-29 22:00,2018,7,29,22:00,20.5,,14.7,,69,,,M,,M,,,100.56,,,,,,NA
2018-07-29 23:00,2018,7,29,23:00,20.5,,16.4,,77,,,M,,M,,,100.6,,25,,,,NA
2018-07-30 0:00,2018,7,30,0:00,20,,17.1,,84,,,M,,M,,,100.64,,25,,,,NA
2018-07-30 1:00,2018,7,30,1:00,20.3,,16.6,,80,,,M,,M,,,100.64,,25,,,,NA
2018-07-30 2:00,2018,7,30,2:00,19.1,,16.1,,83,,,M,,M,,,100.62,,,,,,NA
2018-07-30 3:00,2018,7,30,3:00,18.5,,15.9,,85,,,M,,M,,,100.58,,,,,,NA
2018-07-30 4:00,2018,7,30,4:00,18.3,,16,,87,,,M,,M,,,100.56,,,,,,NA
2018-07-30 5:00,2018,7,30,5:00,19,,16.8,,87,,,M,,M,,,100.61,,,,,,NA
2018-07-30 6:00,2018,7,30,6:00,18.6,,16.1,,86,,,M,,M,,,100.62,,,,,,NA
2018-07-30 7:00,2018,7,30,7:00,19.9,,16.9,,83,,,M,,M,,,100.63,,,,,,NA
2018-07-30 8:00,2018,7,30,8:00,22.1,,16.8,,72,,,M,,M,,,100.62,,27,,,,NA
2018-07-30 9:00,2018,7,30,9:00,22.9,,17.1,,70,,,M,,M,,,100.6,,28,,,,NA
2018-07-30 10:00,2018,7,30,10:00,23.9,,17.3,,67,,,M,,M,,,100.59,,29,,,,NA
2018-07-30 11:00,2018,7,30,11:00,24.7,,16.3,,60,,,M,,M,,,100.6,,30,,,,NA
2018-07-30 12:00,2018,7,30,12:00,24.7,,16.2,,59,,,M,,M,,,100.59,,29,,,,NA
2018-07-30 13:00,2018,7,30,13:00,23.8,,16.5,,64,,,M,,M,,,100.57,,29,,,,NA
2018-07-30 14:00,2018,7,30,14:00,24.8,,14.5,,53,,,M,,M,,,100.61,,28,,,,NA
2018-07-30 15:00,2018,7,30,15:00,25.6,,14.2,,49,,,M,,M,,,100.54,,29,,,,NA
2018-07-30 16:00,2018,7,30,16:00,24.4,,14.9,,55,,,M,,M,,,100.47,,28,,,,NA
2018-07-30 17:00,2018,7,30,17:00,23.7,,14.8,,57,,,M,,M,,,100.47,,28,,,,NA
2018-07-30 18:00,2018,7,30,18:00,22.6,,14.9,,62,,,M,,M,,,100.44,,27,,,,NA
2018-07-30 19:00,2018,7,30,19:00,22.4,,15.5,,65,,,M,,M,,,100.46,,27,,,,NA
2018-07-30 20:00,2018,7,30,20:00,22.1,,15.4,,66,,,M,,M,,,100.42,,26,,,,NA
2018-07-30 21:00,2018,7,30,21:00,21.7,,16.2,,71,,,M,,M,,,100.48,,26,,,,NA
2018-07-30 22:00,2018,7,30,22:00,21.7,,16.5,,72,,,M,,M,,,100.46,,27,,,,NA
2018-07-30 23:00,2018,7,30,23:00,21.5,,17,,76,,,M,,M,,,100.47,,27,,,,NA
2018-07-31 0:00,2018,7,31,0:00,21.3,,17.5,,79,,,M,,M,,,100.46,,27,,,,NA
2018-07-31 1:00,2018,7,31,1:00,21.2,,17.4,,79,,,M,,M,,,100.44,,27,,,,NA
2018-07-31 2:00,2018,7,31,2:00,20.9,,18,,84,,,M,,M,,,100.46,,27,,,,NA
2018-07-31 3:00,2018,7,31,3:00,20.6,,16.9,,80,,,M,,M,,,100.44,,26,,,,NA
2018-07-31 4:00,2018,7,31,4:00,20.1,,16.4,,79,,,M,,M,,,100.46,,25,,,,NA
2018-07-31 5:00,2018,7,31,5:00,19.6,,16.1,,80,,,M,,M,,,100.46,,,,,,NA
2018-07-31 6:00,2018,7,31,6:00,19.8,,16.9,,83,,,M,,M,,,100.48,,,,,,NA
2018-07-31 7:00,2018,7,31,7:00,20.9,,17.4,,80,,,M,,M,,,100.48,,26,,,,NA
2018-07-31 8:00,2018,7,31,8:00,22.4,,17,,71,,,M,,M,,,100.51,,28,,,,NA
2018-07-31 9:00,2018,7,31,9:00,23.6,,17,,67,,,M,,M,,,100.49,,29,,,,NA
2018-07-31 10:00,2018,7,31,10:00,24,,16.5,,63,,,M,,M,,,100.49,,29,,,,NA
2018-07-31 11:00,2018,7,31,11:00,23.5,,16.9,,66,,,M,,M,,,100.51,,29,,,,NA
2018-07-31 12:00,2018,7,31,12:00,23.9,,16.7,,64,,,M,,M,,,100.51,,29,,,,NA
2018-07-31 13:00,2018,7,31,13:00,24.8,,17.6,,64,,,M,,M,,,100.46,,31,,,,NA
2018-07-31 14:00,2018,7,31,14:00,24.6,,17.6,,65,,,M,,M,,,100.39,,30,,,,NA
2018-07-31 15:00,2018,7,31,15:00,23.5,,17.3,,68,,,M,,M,,,100.35,,29,,,,NA
2018-07-31 16:00,2018,7,31,16:00,23.4,,17.7,,71,,,M,,M,,,100.28,,29,,,,NA
2018-07-31 17:00,2018,7,31,17:00,23.5,,17.5,,69,,,M,,M,,,100.3,,29,,,,NA
2018-07-31 18:00,2018,7,31,18:00,23.3,,17.6,,70,,,M,,M,,,100.22,,29,,,,NA
2018-07-31 19:00,2018,7,31,19:00,23,,17.2,,70,,,M,,M,,,100.18,,28,,,,NA
2018-07-31 20:00,2018,7,31,20:00,23.3,,16.7,,66,,,M,,M,,,100.14,,28,,,,NA
2018-07-31 21:00,2018,7,31,21:00,23,,17.7,,72,,,M,,M,,,100.14,,29,,,,NA
2018-07-31 22:00,2018,7,31,22:00,22.4,,18.8,,80,,,M,,M,,,100.11,,29,,,,NA
2018-07-31 23:00,2018,7,31,23:00,22.5,,19.3,,82,,,M,,M,,,100.04,,30,,,,NA
